NORAD_CAT_ID,OBJECT_NAME,OBJECT_TYPE,EPOCH,MEAN_MOTION,ECCENTRICITY,INCLINATION,RA_OF_ASC_NODE,ARG_OF_PERICENTER,MEAN_ANOMALY,BSTAR,MEAN_MOTION_DOT,MEAN_MOTION_DDOT,TLE_LINE0,TLE_LINE1,TLE_LINE2,SEMIMAJOR_AXIS,PERIOD,APOGEE,PERIGEE,DECAYED
51815.0,STARLINK-3604,PAYLOAD,2023-02-03 04:18:49,15.08851012,0.0001425,53.2157,4.184,96.3172,263.7983,0.00062006,9.597e-05,0.0,0 STARLINK-3604,1 51815U 22017AZ  23034.17974461  .00009597  00000-0  62006-3 0  9990,2 51815  53.2157   4.1840 0001425  96.3172 263.7983 15.08851012 53537,6917.847,95.437,540.698,538.726,0.0
51815.0,STARLINK-3604,PAYLOAD,2023-02-04 07:20:23,15.08851296,0.0001277,53.2155,359.128,87.656,272.4578,0.00046516,7.125e-05,0.0,0 STARLINK-3604,1 51815U 22017AZ  23035.30582507  .00007125  00000-0  46516-3 0  9995,2 51815  53.2155 359.1280 0001277  87.6560 272.4578 15.08851296 53705,6917.846,95.437,540.594,538.827,0.0
51815.0,STARLINK-3604,PAYLOAD,2023-02-04 20:03:28,15.0883514,0.0001408,53.2154,356.7478,83.6848,276.4304,0.00018189,2.608e-05,0.0,0 STARLINK-3604,1 51815U 22017AZ  23035.83574673  .00002608  00000-0  18189-3 0  9994,2 51815  53.2154 356.7478 0001408  83.6848 276.4304 15.08835140 53786,6917.895,95.438,540.734,538.786,0.0
51815.0,STARLINK-3604,PAYLOAD,2023-02-04 21:38:51,15.08839204,0.0001272,53.2154,356.4527,90.9053,269.2084,5.8772e-05,6.48e-06,0.0,0 STARLINK-3604,1 51815U 22017AZ  23035.90198831  .00000648  00000-0  58772-4 0  9995,2 51815  53.2154 356.4527 0001272  90.9053 269.2084 15.08839204 53674,6917.883,95.438,540.628,538.868,0.0
51815.0,STARLINK-3604,PAYLOAD,2023-02-05 07:11:10,15.08847347,0.0001259,53.2155,354.6684,86.9696,273.144,0.00022094,3.231e-05,0.0,0 STARLINK-3604,1 51815U 22017AZ  23036.29942497  .00003231  00000-0  22094-3 0  9991,2 51815  53.2155 354.6684 0001259  86.9696 273.1440 15.08847347 53736,6917.858,95.437,540.594,538.852,0.0
51815.0,STARLINK-3604,PAYLOAD,2023-02-06 03:51:10,15.08871838,0.0001277,53.2156,350.8032,87.7241,272.3897,0.000808,0.00012606,0.0,0 STARLINK-3604,1 51815U 22017AZ  23037.16053460  .00012606  00000-0  80800-3 0  9996,2 51815  53.2156 350.8032 0001277  87.7241 272.3897 15.08871838 53983,6917.783,95.436,540.531,538.765,0.0
51815.0,STARLINK-3604,PAYLOAD,2023-02-06 07:01:56,15.08884268,0.0001276,53.2159,350.2082,87.8951,272.2187,0.0011682,0.00018375,0.0,0 STARLINK-3604,1 51815U 22017AZ  23037.29301058  .00018375  00000-0  11682-2 0  9999,2 51815  53.2159 350.2082 0001276  87.8951 272.2187 15.08884268 53884,6917.745,95.435,540.493,538.727,0.0
51815.0,STARLINK-3604,PAYLOAD,2023-02-06 21:20:24,15.08850145,0.0001521,53.2147,347.5293,90.0375,270.0792,0.00028947,4.323e-05,0.0,0 STARLINK-3604,1 51815U 22017AZ  23037.88917485  .00004323  00000-0  28947-3 0  9992,2 51815  53.2147 347.5293 0001521  90.0375 270.0792 15.08850145 53978,6917.849,95.437,540.767,538.662,0.0
51815.0,STARLINK-3604,PAYLOAD,2023-02-07 03:41:57,15.08845159,0.0001238,53.2157,346.343,73.896,286.2168,0.00025757,3.814e-05,0.0,0 STARLINK-3604,1 51815U 22017AZ  23038.15413634  .00003814  00000-0  25757-3 0  9990,2 51815  53.2157 346.3430 0001238  73.8960 286.2168 15.08845159 54137,6917.865,95.437,540.586,538.873,0.0
51815.0,STARLINK-3604,PAYLOAD,2023-02-07 06:52:43,15.08854347,0.0001294,53.2157,345.748,73.794,286.3194,0.00081927,0.0001278,0.0,0 STARLINK-3604,1 51815U 22017AZ  23038.28661563  .00012780  00000-0  81927-3 0  9993,2 51815  53.2157 345.7480 0001294  73.7940 286.3194 15.08854347 54032,6917.837,95.437,540.597,538.806,0.0
51815.0,STARLINK-3604,PAYLOAD,2023-02-07 19:35:49,15.08835802,0.0001373,53.2159,343.3694,77.4833,282.6313,0.0011489,0.00018042,0.0,0 STARLINK-3604,1 51815U 22017AZ  23038.81654259  .00018042  00000-0  11489-2 0  9998,2 51815  53.2159 343.3694 0001373  77.4833 282.6313 15.08835802 54234,6917.893,95.438,540.708,538.808,0.0
51815.0,STARLINK-3604,PAYLOAD,2023-02-07 21:11:12,15.08839014,0.0001236,53.216,343.0723,86.5613,273.552,0.0010265,0.00016086,0.0,0 STARLINK-3604,1 51815U 22017AZ  23038.88278319  .00016086  00000-0  10265-2 0  9991,2 51815  53.2160 343.0723 0001236  86.5613 273.5520 15.08839014 54127,6917.883,95.438,540.603,538.893,0.0
51815.0,STARLINK-3604,PAYLOAD,2023-02-08 06:43:30,15.08874282,0.0001255,53.2159,341.2876,87.8208,272.2928,0.0024296,0.00038628,0.0,0 STARLINK-3604,1 51815U 22017AZ  23039.28021767  .00038628  00000-0  24296-2 0  9994,2 51815  53.2159 341.2876 0001255  87.8208 272.2928 15.08874282 54303,6917.776,95.435,540.509,538.772,0.0
51815.0,STARLINK-3604,PAYLOAD,2023-02-09 03:23:32,15.08847295,9.61e-05,53.2155,337.4223,137.593,222.5136,0.0020656,0.00032746,0.0,0 STARLINK-3604,1 51815U 22017AZ  23040.14134813  .00032746  00000-0  20656-2 0  9999,2 51815  53.2155 337.4223 0000961 137.5930 222.5136 15.08847295 54437,6917.858,95.437,540.388,539.058,0.0
51815.0,STARLINK-3604,PAYLOAD,2023-02-09 04:58:55,15.08849433,8.19e-05,53.2155,337.1249,91.7614,268.3472,0.0023492,0.00037307,0.0,0 STARLINK-3604,1 51815U 22017AZ  23040.20758946  .00037307  00000-0  23492-2 0  9994,2 51815  53.2155 337.1249 0000819  91.7614 268.3472 15.08849433 54329,6917.852,95.437,540.283,539.15,0.0
51815.0,STARLINK-3604,PAYLOAD,2023-02-10 01:38:54,15.08917316,7.93e-05,53.2153,333.2582,103.0191,257.0889,0.0025245,0.00040204,0.0,0 STARLINK-3604,1 51815U 22017AZ  23041.06868354  .00040204  00000-0  25245-2 0  9992,2 51815  53.2153 333.2582 0000793 103.0191 257.0889 15.08917316 54459,6917.644,95.433,540.058,538.961,0.0
51815.0,STARLINK-3604,PAYLOAD,2023-02-10 04:49:43,15.08870978,9.24e-05,53.2153,332.6617,91.9236,268.1862,0.0025099,0.00039917,0.0,0 STARLINK-3604,1 51815U 22017AZ  23041.20119460  .00039917  00000-0  25099-2 0  9991,2 51815  53.2153 332.6617 0000924  91.9236 268.1862 15.08870978 54593,6917.786,95.436,540.29,539.011,0.0
51815.0,STARLINK-3604,PAYLOAD,2023-02-11 01:29:43,15.08876777,0.0001441,53.215,328.7979,70.5308,289.584,0.0020165,0.00031983,0.0,0 STARLINK-3604,1 51815U 22017AZ  23042.06231110  .00031983  00000-0  20165-2 0  9997,2 51815  53.2150 328.7979 0001441  70.5308 289.5840 15.08876777 54726,6917.768,95.435,540.63,538.636,0.0
51815.0,STARLINK-3604,PAYLOAD,2023-02-11 18:58:58,15.08848092,0.0001277,53.214,325.5278,52.8416,307.2692,0.001458,0.00022997,0.0,0 STARLINK-3604,1 51815U 22017AZ  23042.79095266  .00022997  00000-0  14580-2 0  9996,2 51815  53.2140 325.5278 0001277  52.8416 307.2692 15.08848092 54836,6917.856,95.437,540.604,538.837,0.0
51815.0,STARLINK-3604,PAYLOAD,2023-02-12 04:31:16,15.08854531,0.0001638,53.2157,323.7412,81.5121,278.6057,0.0005742,8.866e-05,0.0,0 STARLINK-3604,1 51815U 22017AZ  23043.18838826  .00008866  00000-0  57420-3 0  9997,2 51815  53.2157 323.7412 0001638  81.5121 278.6057 15.08854531 54894,6917.836,95.437,540.834,538.568,0.0
51815.0,STARLINK-3604,PAYLOAD,2023-02-12 18:49:45,15.08827579,0.0001697,53.2155,321.0662,77.0947,283.0235,-6.7108e-05,-1.356e-05,0.0,0 STARLINK-3604,1 51815U 22017AZ  23043.78455699 -.00001356  00000-0 -67108-4 0  9990,2 51815  53.2155 321.0662 0001697  77.0947 283.0235 15.08827579 54981,6917.918,95.438,540.957,538.609,0.0
51815.0,STARLINK-3604,PAYLOAD,2023-02-13 10:43:37,15.08835019,0.0001745,53.2148,318.0934,67.2085,292.9091,0.00070257,0.0001091,0.0,0 STARLINK-3604,1 51815U 22017AZ  23044.44696487  .00010910  00000-0  70257-3 0  9998,2 51815  53.2148 318.0934 0001745  67.2085 292.9091 15.08835019 54964,6917.896,95.438,540.968,538.553,0.0
51815.0,STARLINK-3604,PAYLOAD,2023-02-14 02:37:28,15.08873919,0.0001584,53.2162,315.1185,60.1237,299.9912,0.0013403,0.00021127,0.0,0 STARLINK-3604,1 51815U 22017AZ  23045.10935432  .00021127  00000-0  13403-2 0  9999,2 51815  53.2162 315.1185 0001584  60.1237 299.9912 15.08873919 55183,6917.777,95.435,540.737,538.546,0.0
51815.0,STARLINK-3604,PAYLOAD,2023-02-14 10:34:23,15.08846887,8.93e-05,53.2152,313.6313,70.2403,289.8685,-9.0931e-05,-1.735e-05,0.0,0 STARLINK-3604,1 51815U 22017AZ  23045.44055451 -.00001735  00000-0 -90931-4 0  9998,2 51815  53.2152 313.6313 0000893  70.2403 289.8685 15.08846887 55232,6917.859,95.437,540.342,539.107,0.0
51815.0,STARLINK-3604,PAYLOAD,2023-02-14 18:31:19,15.08842648,0.000188,53.214,312.1443,75.3326,284.7874,0.00065546,0.0001016,0.0,0 STARLINK-3604,1 51815U 22017AZ  23045.77175847  .00010160  00000-0  65546-3 0  9999,2 51815  53.2140 312.1443 0001880  75.3326 284.7874 15.08842648 55161,6917.872,95.437,541.038,538.437,0.0
51815.0,STARLINK-3604,PAYLOAD,2023-02-15 10:25:11,15.08844385,9.2e-05,53.2149,309.1709,66.7396,293.3693,0.00072321,0.00011242,0.0,0 STARLINK-3604,1 51815U 22017AZ  23046.43415869  .00011242  00000-0  72321-3 0  9995,2 51815  53.2149 309.1709 0000920  66.7396 293.3693 15.08844385 55262,6917.867,95.437,540.368,539.096,0.0
51815.0,STARLINK-3604,PAYLOAD,2023-02-15 16:46:44,15.08838246,0.0001378,53.2136,307.9803,72.1312,287.983,0.0006207,9.604e-05,0.0,0 STARLINK-3604,1 51815U 22017AZ  23046.69912239  .00009604  00000-0  62070-3 0  9995,2 51815  53.2136 307.9803 0001378  72.1312 287.9830 15.08838246 55425,6917.886,95.438,540.704,538.797,0.0
51815.0,STARLINK-3604,PAYLOAD,2023-02-15 21:32:53,15.08853849,0.0001794,53.2153,307.0909,77.897,282.2223,0.0009657,0.0001512,0.0,0 STARLINK-3604,1 51815U 22017AZ  23046.89784031  .00015120  00000-0  96570-3 0  9996,2 51815  53.2153 307.0909 0001794  77.8970 282.2223 15.08853849 55336,6917.838,95.437,540.944,538.462,0.0
51815.0,STARLINK-3604,PAYLOAD,2023-02-16 00:43:38,15.0888348,9.17e-05,53.2143,306.4944,95.9389,264.1707,0.0018097,0.00028665,0.0,0 STARLINK-3604,1 51815U 22017AZ  23047.03031020  .00028665  00000-0  18097-2 0  9991,2 51815  53.2143 306.4944 0000917  95.9389 264.1707 15.08883480 55473,6917.747,95.435,540.247,538.978,0.0
51815.0,STARLINK-3604,PAYLOAD,2023-02-16 10:15:57,15.08856581,0.0001098,53.2142,304.7103,93.5443,266.5675,0.00053738,8.279e-05,0.0,0 STARLINK-3604,1 51815U 22017AZ  23047.42775275  .00008279  00000-0  53738-3 0  9992,2 51815  53.2142 304.7103 0001098  93.5443 266.5675 15.08856581 55535,6917.83,95.437,540.454,538.935,0.0
